OBJECT_NAME,OBJECT_ID,EPOCH,MEAN_MOTION,ECCENTRICITY,INCLINATION,RA_OF_ASC_NODE,ARG_OF_PERICENTER,MEAN_ANOMALY,EPHEMERIS_TYPE,CLASSIFICATION_TYPE,NORAD_CAT_ID,ELEMENT_SET_NO,REV_AT_EPOCH,BSTAR,MEAN_MOTION_DOT,MEAN_MOTION_DDOT
FENGYUN 3D,2017-072A,2026-06-14T21:24:43.124256,14.19739260,.0002575,99.0118,140.2725,66.9854,293.1593,0,U,43010,999,44466,.19838E-4,-.4E-7,0
NOAA 20 (JPSS-1),2017-073A,2026-06-14T16:12:24.482304,14.19511256,.0000287,98.7772,105.1602,77.0166,283.1042,0,U,43013,999,44411,.32923E-4,.25E-6,0
GOES 17,2018-022A,2026-06-14T19:31:31.769760,1.00270028,.0000388,0.9312,85.7532,33.8569,346.8805,0,U,43226,999,3040,0,-.177E-5,0
SENTINEL-3B,2018-039A,2026-06-14T15:57:38.445984,14.26734026,.0000746,98.6250,233.2335,85.0012,275.1253,0,U,43437,999,42376,.44097E-4,.63E-6,0
FENGYUN 2H,2018-050A,2026-06-14T21:47:59.234208,1.00269814,.0001955,3.0242,79.0990,137.2903,93.2285,0,U,43491,999,2941,0,-.127E-5,0
METOP-C,2018-087A,2026-06-14T19:34:32.147040,14.21511514,.0001681,98.6645,225.4626,132.1938,227.9382,0,U,43689,999,39449,.63177E-4,.95E-6,0
GEO-KOMPSAT-2A,2018-100A,2026-06-14T20:33:38.185344,1.00271625,.000178,0.0508,126.1227,319.5000,254.2045,0,U,43823,999,2760,0,-.338E-5,0
METEOR-M2 2,2019-038A,2026-06-14T20:33:04.527360,14.24366015,.0002122,98.9136,153.1068,52.2599,307.8771,0,U,44387,999,36096,.93283E-4,.17E-5,0
ARKTIKA-M 1,2021-016A,2026-06-09T12:22:37.726752,2.00625436,.7285674,63.2417,58.7595,269.8905,14.6803,0,U,47719,999,3863,0,-.149E-5,0
FENGYUN 3E,2021-062A,2026-06-14T21:01:51.290112,14.19902988,.0002844,98.7486,169.3097,89.4318,270.7184,0,U,49008,999,25625,-.11933E-3,-.297E-5,0
GOES 18,2022-021A,2026-06-14T14:10:02.878176,1.00272326,.000047,0.0052,51.4023,114.9043,172.0953,0,U,51850,999,656,0,.103E-5,0
NOAA 21 (JPSS-2),2022-150A,2026-06-14T20:22:54.687648,14.19565068,.0001517,98.7060,104.6777,159.4397,200.6840,0,U,54234,999,18621,.38878E-4,.38E-6,0
METEOSAT-12 (MTG-I1),2022-170C,2026-06-14T19:05:38.804928,1.00272085,.0003135,0.7357,22.5581,71.9941,94.5300,0,U,54743,999,1295,0,-.3E-7,0
TIANMU-1 03,2023-039A,2026-06-14T20:25:52.397760,15.47226472,.0004274,97.5222,339.7292,104.6464,255.5260,0,U,55973,999,18047,.27829E-3,.14075E-3,0
TIANMU-1 04,2023-039B,2026-06-14T20:12:00.963648,15.47823694,.0004859,97.5161,338.8727,101.8143,258.3651,0,U,55974,999,18048,.28747E-3,.1485E-3,0
TIANMU-1 05,2023-039C,2026-06-14T19:58:00.829056,15.47153532,.0003902,97.5206,339.3246,120.3597,239.8039,0,U,55975,999,18045,.28212E-3,.14234E-3,0
TIANMU-1 06,2023-039D,2026-06-14T20:16:40.357920,15.47728356,.000431,97.5213,339.9717,116.3814,243.7878,0,U,55976,999,18048,.28453E-3,.14647E-3,0
FENGYUN 3G,2023-055A,2026-06-14T20:29:35.936160,15.52536335,.0006907,49.9936,358.0442,286.8836,73.1374,0,U,56232,999,17964,.34882E-3,.21437E-3,0
METEOR-M2 3,2023-091A,2026-06-14T20:24:06.729696,14.24046599,.0004227,98.6090,220.8762,161.3087,198.8248,0,U,57166,999,15418,.21697E-4,.7E-7,0
TIANMU-1 07,2023-101A,2026-06-14T19:27:30.223008,15.29783783,.0003982,97.2594,216.5336,126.4406,233.7202,0,U,57399,999,16128,.2122E-3,.6048E-4,0
TIANMU-1 08,2023-101B,2026-06-14T20:13:40.158624,15.29788782,.0005492,97.2583,216.3359,120.6142,239.5641,0,U,57400,999,16128,.20398E-3,.5813E-4,0
TIANMU-1 09,2023-101C,2026-06-14T19:49:51.232224,15.29819072,.0004453,97.2542,215.7366,132.0381,228.1239,0,U,57401,999,16128,.21762E-3,.6212E-4,0
TIANMU-1 10,2023-101D,2026-06-14T20:37:23.080224,15.29790808,.0006026,97.2621,216.8170,132.2753,227.9000,0,U,57402,999,16128,.21135E-3,.6027E-4,0
FENGYUN 3F,2023-111A,2026-06-14T20:38:46.428576,14.19938752,.0001587,98.6835,235.9122,94.8087,265.3271,0,U,57490,999,14853,.4713E-4,.57E-6,0
ARKTIKA-M 2,2023-198A,2026-06-09T18:48:45.592992,2.00606537,.69004015,63.2205,155.1874,267.4353,18.7899,0,U,58584,999,1817,0,.212E-5,0
TIANMU-1 11,2023-205A,2026-06-14T21:23:01.777056,15.26975157,.0009249,97.3442,187.4838,24.9274,335.2410,0,U,58645,999,13717,.19546E-3,.5108E-4,0
TIANMU-1 12,2023-205B,2026-06-14T20:40:16.601664,15.26939123,.0007013,97.3430,187.2107,11.9517,348.1887,0,U,58646,999,13715,.21021E-3,.549E-4,0
TIANMU-1 13,2023-205C,2026-06-14T21:26:17.803968,15.26792906,.0006176,97.3460,187.5145,350.7077,9.4046,0,U,58647,999,13715,.1997E-3,.5188E-4,0
TIANMU-1 14,2023-205D,2026-06-14T21:05:05.438688,15.26837397,.0007129,97.3395,186.6835,354.6122,5.5039,0,U,58648,999,13715,.20404E-3,.5311E-4,0
TIANMU-1 19,2023-208A,2026-06-14T20:52:11.059680,15.31544296,.000399,97.4507,282.1571,338.9004,21.2072,0,U,58660,999,13697,.25778E-3,.7776E-4,0
TIANMU-1 20,2023-208B,2026-06-14T20:15:11.459232,15.32734763,.0006215,97.4448,282.7642,343.4422,16.6616,0,U,58661,999,13706,.23516E-3,.7358E-4,0
