FENGYUN 3D              
1 43010U 17072A   26165.89216579 -.00000004  00000+0  19838-4 0  9999
2 43010  99.0118 140.2725 0002575  66.9854 293.1593 14.19739260444664
NOAA 20 (JPSS-1)        
1 43013U 17073A   26165.67528336  .00000025  00000+0  32923-4 0  9998
2 43013  98.7772 105.1602 0000287  77.0166 283.1042 14.19511256444111
GOES 17                 
1 43226U 18022A   26165.81356215 -.00000177  00000+0  00000+0 0  9995
2 43226   0.9312  85.7532 0000388  33.8569 346.8805  1.00270028 30408
SENTINEL-3B             
1 43437U 18039A   26165.66502831  .00000063  00000+0  44097-4 0  9999
2 43437  98.6250 233.2335 0000746  85.0012 275.1253 14.26734026423769
FENGYUN 2H              
1 43491U 18050A   26165.90832447 -.00000127  00000+0  00000+0 0  9991
2 43491   3.0242  79.0990 0001955 137.2903  93.2285  1.00269814 29419
METOP-C                 
1 43689U 18087A   26165.81564985  .00000095  00000+0  63177-4 0  9991
2 43689  98.6645 225.4626 0001681 132.1938 227.9382 14.21511514394497
GEO-KOMPSAT-2A          
1 43823U 18100A   26165.85669196 -.00000338  00000+0  00000+0 0  9993
2 43823   0.0508 126.1227 0001780 319.5000 254.2045  1.00271625 27601
METEOR-M2 2             
1 44387U 19038A   26165.85630240  .00000170  00000+0  93283-4 0  9991
2 44387  98.9136 153.1068 0002122  52.2599 307.8771 14.24366015360966
ARKTIKA-M 1             
1 47719U 21016A   26160.51571443 -.00000149  00000+0  00000+0 0  9996
2 47719  63.2417  58.7595 7285674 269.8905  14.6803  2.00625436 38630
FENGYUN 3E              
1 49008U 21062A   26165.87628808 -.00000297  00000+0 -11933-3 0  9998
2 49008  98.7486 169.3097 0002844  89.4318 270.7184 14.19902988256251
GOES 18                 
1 51850U 22021A   26165.59031109  .00000103  00000+0  00000+0 0  9996
2 51850   0.0052  51.4023 0000470 114.9043 172.0953  1.00272326  6563
NOAA 21 (JPSS-2)        
1 54234U 22150A   26165.84924407  .00000038  00000+0  38878-4 0  9994
2 54234  98.7060 104.6777 0001517 159.4397 200.6840 14.19565068186217
METEOSAT-12 (MTG-I1)    
1 54743U 22170C   26165.79558802 -.00000003  00000+0  00000+0 0  9991
2 54743   0.7357  22.5581 0003135  71.9941  94.5300  1.00272085 12956
TIANMU-1 03             
1 55973U 23039A   26165.85130090  .00014075  00000+0  27829-3 0  9999
2 55973  97.5222 339.7292 0004274 104.6464 255.5260 15.47226472180470
TIANMU-1 04             
1 55974U 23039B   26165.84167782  .00014850  00000+0  28747-3 0  9998
2 55974  97.5161 338.8727 0004859 101.8143 258.3651 15.47823694180483
TIANMU-1 05             
1 55975U 23039C   26165.83195404  .00014234  00000+0  28212-3 0  9993
2 55975  97.5206 339.3246 0003902 120.3597 239.8039 15.47153532180451
TIANMU-1 06             
1 55976U 23039D   26165.84491155  .00014647  00000+0  28453-3 0  9992
2 55976  97.5213 339.9717 0004310 116.3814 243.7878 15.47728356180480
FENGYUN 3G              
1 56232U 23055A   26165.85388815  .00021437  00000+0  34882-3 0  9993
2 56232  49.9936 358.0442 0006907 286.8836  73.1374 15.52536335179649
METEOR-M2 3             
1 57166U 23091A   26165.85007789  .00000007  00000+0  21697-4 0  9999
2 57166  98.6090 220.8762 0004227 161.3087 198.8248 14.24046599154180
TIANMU-1 07             
1 57399U 23101A   26165.81076647  .00006048  00000+0  21220-3 0  9996
2 57399  97.2594 216.5336 0003982 126.4406 233.7202 15.29783783161282
TIANMU-1 08             
1 57400U 23101B   26165.84282591  .00005813  00000+0  20398-3 0  9993
2 57400  97.2583 216.3359 0005492 120.6142 239.5641 15.29788782161282
TIANMU-1 09             
1 57401U 23101C   26165.82628741  .00006212  00000+0  21762-3 0  9993
2 57401  97.2542 215.7366 0004453 132.0381 228.1239 15.29819072161281
TIANMU-1 10             
1 57402U 23101D   26165.85929491  .00006027  00000+0  21135-3 0  9991
2 57402  97.2621 216.8170 0006026 132.2753 227.9000 15.29790808161286
FENGYUN 3F              
1 57490U 23111A   26165.86025959  .00000057  00000+0  47130-4 0  9997
2 57490  98.6835 235.9122 0001587  94.8087 265.3271 14.19938752148533
ARKTIKA-M 2             
1 58584U 23198A   26160.78386103  .00000212  00000+0  00000+0 0  9997
2 58584  63.2205 155.1874 6900401 267.4353  18.7899  2.00606537 18179
TIANMU-1 11             
1 58645U 23205A   26165.89099279  .00005108  00000+0  19546-3 0  9994
2 58645  97.3442 187.4838 0009249  24.9274 335.2410 15.26975157137175
TIANMU-1 12             
1 58646U 23205B   26165.86130326  .00005490  00000+0  21021-3 0  9996
2 58646  97.3430 187.2107 0007013  11.9517 348.1887 15.26939123137155
TIANMU-1 13             
1 58647U 23205C   26165.89326162  .00005188  00000+0  19970-3 0  9999
2 58647  97.3460 187.5145 0006176 350.7077   9.4046 15.26792906137158
TIANMU-1 14             
1 58648U 23205D   26165.87853517  .00005311  00000+0  20404-3 0  9999
2 58648  97.3395 186.6835 0007129 354.6122   5.5039 15.26837397137158
TIANMU-1 19             
1 58660U 23208A   26165.86957245  .00007776  00000+0  25778-3 0  9994
2 58660  97.4507 282.1571 0003990 338.9004  21.2072 15.31544296136973
TIANMU-1 20             
1 58661U 23208B   26165.84388263  .00007358  00000+0  23516-3 0  9995
2 58661  97.4448 282.7642 0006215 343.4422  16.6616 15.32734763137065
